[{"OBJECT_NAME":"HAIYANG-2B","OBJECT_ID":"2018-081A","EPOCH":"2026-03-10T00:03:41.001696","MEAN_MOTION":13.79306715,"ECCENTRICITY":0.0001262,"INCLINATION":99.3339,"RA_OF_ASC_NODE":79.2399,"ARG_OF_PERICENTER":141.6934,"MEAN_ANOMALY":218.4307,"EPHEMERIS_TYPE":0,"CLASSIFICATION_TYPE":"U","NORAD_CAT_ID":43655,"ELEMENT_SET_NO":999,"REV_AT_EPOCH":37125,"BSTAR":-0.00018769625,"MEAN_MOTION_DOT":-2.37e-6,"MEAN_MOTION_DDOT":0},{"OBJECT_NAME":"COSMOS 2251 DEB","OBJECT_ID":"1993-036AET","EPOCH":"2026-03-02T01:57:53.268192","MEAN_MOTION":14.00978422,"ECCENTRICITY":0.02102926,"INCLINATION":73.9689,"RA_OF_ASC_NODE":209.7047,"ARG_OF_PERICENTER":50.3303,"MEAN_ANOMALY":311.6169,"EPHEMERIS_TYPE":0,"CLASSIFICATION_TYPE":"U","NORAD_CAT_ID":34964,"ELEMENT_SET_NO":999,"REV_AT_EPOCH":85589,"BSTAR":0.0014172278,"MEAN_MOTION_DOT":2.549e-5,"MEAN_MOTION_DDOT":0}]
